[
  {
    "id": 2072,
    "department_code": "07",
    "insee_code": "07001",
    "zip_code": "07160",
    "name": "Accons",
    "slug": "accons",
    "gps_lat": 44.89120382165605,
    "gps_lng": 4.38716070063694
  },
  {
    "id": 2073,
    "department_code": "07",
    "insee_code": "07002",
    "zip_code": "07200",
    "name": "Ailhon",
    "slug": "ailhon",
    "gps_lat": 44.6004718852459,
    "gps_lng": 4.33298598360656
  },
  {
    "id": 2074,
    "department_code": "07",
    "insee_code": "07003",
    "zip_code": "07530",
    "name": "Aizac",
    "slug": "aizac",
    "gps_lat": 44.71891980582524,
    "gps_lng": 4.33130009708738
  },
  {
    "id": 2075,
    "department_code": "07",
    "insee_code": "07004",
    "zip_code": "07000",
    "name": "Ajoux",
    "slug": "ajoux",
    "gps_lat": 44.75942698412697,
    "gps_lng": 4.48732317460317
  },
  {
    "id": 2076,
    "department_code": "07",
    "insee_code": "07005",
    "zip_code": "07400",
    "name": "Alba-la-Romaine",
    "slug": "alba la romaine",
    "gps_lat": 44.55347145985403,
    "gps_lng": 4.59547974452555
  },
  {
    "id": 2077,
    "department_code": "07",
    "insee_code": "07006",
    "zip_code": "07190",
    "name": "Albon-d'Ard\u00e8che",
    "slug": "albon d ardeche",
    "gps_lat": 44.81930845679015,
    "gps_lng": 4.41797432098765
  },
  {
    "id": 2078,
    "department_code": "07",
    "insee_code": "07007",
    "zip_code": "07440",
    "name": "Alboussi\u00e8re",
    "slug": "alboussiere",
    "gps_lat": 44.93935930327866,
    "gps_lng": 4.73963446721312
  },
  {
    "id": 2079,
    "department_code": "07",
    "insee_code": "07008",
    "zip_code": "07210",
    "name": "Alissas",
    "slug": "alissas",
    "gps_lat": 44.705058125,
    "gps_lng": 4.62057368055556
  },
  {
    "id": 2080,
    "department_code": "07",
    "insee_code": "07009",
    "zip_code": "07340",
    "name": "Andance",
    "slug": "andance",
    "gps_lat": 45.22684880952381,
    "gps_lng": 4.79337940476191
  },
  {
    "id": 2081,
    "department_code": "07",
    "insee_code": "07010",
    "zip_code": "07100",
    "name": "Annonay",
    "slug": "annonay",
    "gps_lat": 45.2443633762058,
    "gps_lng": 4.65341196141479
  },
  {
    "id": 2082,
    "department_code": "07",
    "insee_code": "07011",
    "zip_code": "07530",
    "name": "Antraigues-sur-Volane",
    "slug": "antraigues sur volane",
    "gps_lat": 44.73457017777783,
    "gps_lng": 4.3569392
  },
  {
    "id": 2083,
    "department_code": "07",
    "insee_code": "07012",
    "zip_code": "07310",
    "name": "Arcens",
    "slug": "arcens",
    "gps_lat": 44.89863667910448,
    "gps_lng": 4.31649391791045
  },
  {
    "id": 2084,
    "department_code": "07",
    "insee_code": "07013",
    "zip_code": "07290",
    "name": "Ardoix",
    "slug": "ardoix",
    "gps_lat": 45.19199955128204,
    "gps_lng": 4.74414788461538
  },
  {
    "id": 2085,
    "department_code": "07",
    "insee_code": "07014",
    "zip_code": "07410",
    "name": "Arlebosc",
    "slug": "arlebosc",
    "gps_lat": 45.039407535545,
    "gps_lng": 4.63079497630332
  },
  {
    "id": 2086,
    "department_code": "07",
    "insee_code": "07015",
    "zip_code": "07370",
    "name": "Arras-sur-Rh\u00f4ne",
    "slug": "arras sur rhone",
    "gps_lat": 45.14507432835821,
    "gps_lng": 4.80176104477612
  },
  {
    "id": 2087,
    "department_code": "07",
    "insee_code": "07016",
    "zip_code": "07600",
    "name": "Asperjoc",
    "slug": "asperjoc",
    "gps_lat": 44.69546068376066,
    "gps_lng": 4.35125145299145
  },
  {
    "id": 2088,
    "department_code": "07",
    "insee_code": "07017",
    "zip_code": "07140",
    "name": "Les Assions",
    "slug": "les assions",
    "gps_lat": 44.42614841772151,
    "gps_lng": 4.18849601265823
  },
  {
    "id": 2089,
    "department_code": "07",
    "insee_code": "07018",
    "zip_code": "07330",
    "name": "Astet",
    "slug": "astet",
    "gps_lat": 44.69162814977972,
    "gps_lng": 4.02491471365639
  },
  {
    "id": 2090,
    "department_code": "07",
    "insee_code": "07019",
    "zip_code": "07200",
    "name": "Aubenas",
    "slug": "aubenas",
    "gps_lat": 44.61327699386505,
    "gps_lng": 4.39175957055215
  },
  {
    "id": 2091,
    "department_code": "07",
    "insee_code": "07020",
    "zip_code": "07400",
    "name": "Aubignas",
    "slug": "aubignas",
    "gps_lat": 44.58199571428571,
    "gps_lng": 4.63317902255639
  },
  {
    "id": 2092,
    "department_code": "07",
    "insee_code": "07022",
    "zip_code": "07210",
    "name": "Baix",
    "slug": "baix",
    "gps_lat": 44.70561870967743,
    "gps_lng": 4.74140532258064
  },
  {
    "id": 2093,
    "department_code": "07",
    "insee_code": "07023",
    "zip_code": "07120",
    "name": "Balazuc",
    "slug": "balazuc",
    "gps_lat": 44.50245734848486,
    "gps_lng": 4.3794096969697
  },
  {
    "id": 2094,
    "department_code": "07",
    "insee_code": "07024",
    "zip_code": "07460",
    "name": "Banne",
    "slug": "banne",
    "gps_lat": 44.36016381322956,
    "gps_lng": 4.14822478599222
  },
  {
    "id": 2095,
    "department_code": "07",
    "insee_code": "07025",
    "zip_code": "07330",
    "name": "Barnas",
    "slug": "barnas",
    "gps_lat": 44.66808050955417,
    "gps_lng": 4.15964210191083
  },
  {
    "id": 2096,
    "department_code": "07",
    "insee_code": "07026",
    "zip_code": "07630",
    "name": "Le B\u00e9age",
    "slug": "le beage",
    "gps_lat": 44.8578591967872,
    "gps_lng": 4.1322624497991995
  },
  {
    "id": 2097,
    "department_code": "07",
    "insee_code": "07027",
    "zip_code": "07800",
    "name": "Beauchastel",
    "slug": "beauchastel",
    "gps_lat": 44.83393513513513,
    "gps_lng": 4.79134162162162
  },
  {
    "id": 2098,
    "department_code": "07",
    "insee_code": "07028",
    "zip_code": "07460",
    "name": "Beaulieu",
    "slug": "beaulieu",
    "gps_lat": 44.35740306122448,
    "gps_lng": 4.25411540816326
  },
  {
    "id": 2099,
    "department_code": "07",
    "insee_code": "07029",
    "zip_code": "07110",
    "name": "Beaumont",
    "slug": "beaumont",
    "gps_lat": 44.53813835106383,
    "gps_lng": 4.17150531914894
  },
  {
    "id": 2100,
    "department_code": "07",
    "insee_code": "07030",
    "zip_code": "07190",
    "name": "Beauv\u00e8ne",
    "slug": "beauvene",
    "gps_lat": 44.86745946428572,
    "gps_lng": 4.5102441964285696
  },
  {
    "id": 2101,
    "department_code": "07",
    "insee_code": "07031",
    "zip_code": "07460",
    "name": "Berrias-et-Casteljau",
    "slug": "berrias et casteljau",
    "gps_lat": 44.38418994736841,
    "gps_lng": 4.20915731578947
  },
  {
    "id": 2102,
    "department_code": "07",
    "insee_code": "07032",
    "zip_code": "07580",
    "name": "Berz\u00e8me",
    "slug": "berzeme",
    "gps_lat": 44.65107608938548,
    "gps_lng": 4.57119273743017
  },
  {
    "id": 2103,
    "department_code": "07",
    "insee_code": "07033",
    "zip_code": "07150",
    "name": "Bessas",
    "slug": "bessas",
    "gps_lat": 44.33933947368418,
    "gps_lng": 4.2967422368421
  },
  {
    "id": 2104,
    "department_code": "07",
    "insee_code": "07034",
    "zip_code": "07700",
    "name": "Bidon",
    "slug": "bidon",
    "gps_lat": 44.34431691056912,
    "gps_lng": 4.54360829268292
  },
  {
    "id": 2105,
    "department_code": "07",
    "insee_code": "07035",
    "zip_code": "07440",
    "name": "Boffres",
    "slug": "boffres",
    "gps_lat": 44.91985505263158,
    "gps_lng": 4.6933960701754405
  },
  {
    "id": 2106,
    "department_code": "07",
    "insee_code": "07036",
    "zip_code": "07340",
    "name": "Bogy",
    "slug": "bogy",
    "gps_lat": 45.28334493670885,
    "gps_lng": 4.7699635443038
  },
  {
    "id": 2107,
    "department_code": "07",
    "insee_code": "07037",
    "zip_code": "07310",
    "name": "Bor\u00e9e",
    "slug": "boree",
    "gps_lat": 44.89718894009217,
    "gps_lng": 4.24444723502304
  },
  {
    "id": 2108,
    "department_code": "07",
    "insee_code": "07038",
    "zip_code": "07590",
    "name": "Borne",
    "slug": "borne",
    "gps_lat": 44.61317381526102,
    "gps_lng": 4.03614975903614
  },
  {
    "id": 2109,
    "department_code": "07",
    "insee_code": "07039",
    "zip_code": "07410",
    "name": "Bozas",
    "slug": "bozas",
    "gps_lat": 45.05554264900664,
    "gps_lng": 4.65013092715231
  },
  {
    "id": 2110,
    "department_code": "07",
    "insee_code": "07040",
    "zip_code": "07270",
    "name": "Boucieu-le-Roi",
    "slug": "boucieu le roi",
    "gps_lat": 45.02705277227719,
    "gps_lng": 4.6857146534653396
  },
  {
    "id": 2111,
    "department_code": "07",
    "insee_code": "07041",
    "zip_code": "07100",
    "name": "Boulieu-l\u00e8s-Annonay",
    "slug": "boulieu les annonay",
    "gps_lat": 45.26756295597485,
    "gps_lng": 4.64933867924528
  },
  {
    "id": 2112,
    "department_code": "07",
    "insee_code": "07042",
    "zip_code": "07700",
    "name": "Bourg-Saint-And\u00e9ol",
    "slug": "bourg saint andeol",
    "gps_lat": 44.37930466101696,
    "gps_lng": 4.6127656779661
  },
  {
    "id": 2113,
    "department_code": "07",
    "insee_code": "07044",
    "zip_code": "07340",
    "name": "Brossainc",
    "slug": "brossainc",
    "gps_lat": 45.33048943396226,
    "gps_lng": 4.6803664150943405
  },
  {
    "id": 2114,
    "department_code": "07",
    "insee_code": "07045",
    "zip_code": "07450",
    "name": "Burzet",
    "slug": "burzet",
    "gps_lat": 44.74723826589597,
    "gps_lng": 4.24078653179191
  },
  {
    "id": 2115,
    "department_code": "07",
    "insee_code": "07047",
    "zip_code": "07590",
    "name": "Cellier-du-Luc",
    "slug": "cellier du luc",
    "gps_lat": 44.67468823529413,
    "gps_lng": 3.90219301470588
  },
  {
    "id": 2116,
    "department_code": "07",
    "insee_code": "07048",
    "zip_code": "07240",
    "name": "Chalencon",
    "slug": "chalencon",
    "gps_lat": 44.87816970000001,
    "gps_lng": 4.5601975
  },
  {
    "id": 2117,
    "department_code": "07",
    "insee_code": "07049",
    "zip_code": "07160",
    "name": "Le Chambon",
    "slug": "le chambon",
    "gps_lat": 44.83310791666666,
    "gps_lng": 4.29989571428572
  },
  {
    "id": 2118,
    "department_code": "07",
    "insee_code": "07050",
    "zip_code": "07140",
    "name": "Chambonas",
    "slug": "chambonas",
    "gps_lat": 44.42769320987654,
    "gps_lng": 4.13070691358025
  },
  {
    "id": 2119,
    "department_code": "07",
    "insee_code": "07051",
    "zip_code": "07340",
    "name": "Champagne",
    "slug": "champagne",
    "gps_lat": 45.27819891891893,
    "gps_lng": 4.79600081081081
  },
  {
    "id": 2120,
    "department_code": "07",
    "insee_code": "07052",
    "zip_code": "07440",
    "name": "Champis",
    "slug": "champis",
    "gps_lat": 44.95645206730769,
    "gps_lng": 4.75209389423077
  },
  {
    "id": 2121,
    "department_code": "07",
    "insee_code": "07053",
    "zip_code": "07230",
    "name": "Chandolas",
    "slug": "chandolas",
    "gps_lat": 44.41748972222223,
    "gps_lng": 4.24744185185185
  },
  {
    "id": 2122,
    "department_code": "07",
    "insee_code": "07054",
    "zip_code": "07310",
    "name": "Chan\u00e9ac",
    "slug": "chaneac",
    "gps_lat": 44.93130046728971,
    "gps_lng": 4.31089962616822
  },
  {
    "id": 2123,
    "department_code": "07",
    "insee_code": "07055",
    "zip_code": "07800",
    "name": "Charmes-sur-Rh\u00f4ne",
    "slug": "charmes sur rhone",
    "gps_lat": 44.86543300000002,
    "gps_lng": 4.8342317999999995
  },
  {
    "id": 2124,
    "department_code": "07",
    "insee_code": "07056",
    "zip_code": "07340",
    "name": "Charnas",
    "slug": "charnas",
    "gps_lat": 45.3453748245614,
    "gps_lng": 4.73065078947368
  },
  {
    "id": 2125,
    "department_code": "07",
    "insee_code": "07058",
    "zip_code": "07110",
    "name": "Chassiers",
    "slug": "chassiers",
    "gps_lat": 44.56498117021273,
    "gps_lng": 4.29424138297872
  },
  {
    "id": 2126,
    "department_code": "07",
    "insee_code": "07059",
    "zip_code": "07130",
    "name": "Ch\u00e2teaubourg",
    "slug": "chateaubourg",
    "gps_lat": 44.98539102941177,
    "gps_lng": 4.8329708823529405
  },
  {
    "id": 2127,
    "department_code": "07",
    "insee_code": "07060",
    "zip_code": "07240",
    "name": "Ch\u00e2teauneuf-de-Vernoux",
    "slug": "chateauneuf de vernoux",
    "gps_lat": 44.92134104477612,
    "gps_lng": 4.64643029850746
  },
  {
    "id": 2128,
    "department_code": "07",
    "insee_code": "07061",
    "zip_code": "07120",
    "name": "Chauzon",
    "slug": "chauzon",
    "gps_lat": 44.4925990909091,
    "gps_lng": 4.34099854545455
  },
  {
    "id": 2129,
    "department_code": "07",
    "insee_code": "07062",
    "zip_code": "07110",
    "name": "Chazeaux",
    "slug": "chazeaux",
    "gps_lat": 44.59485194444444,
    "gps_lng": 4.30328
  },
  {
    "id": 2130,
    "department_code": "07",
    "insee_code": "07063",
    "zip_code": "07300",
    "name": "Cheminas",
    "slug": "cheminas",
    "gps_lat": 45.13041304761902,
    "gps_lng": 4.7439159047619
  },
  {
    "id": 2131,
    "department_code": "07",
    "insee_code": "07064",
    "zip_code": "07160",
    "name": "Le Cheylard",
    "slug": "le cheylard",
    "gps_lat": 44.91144197368421,
    "gps_lng": 4.42181730263158
  },
  {
    "id": 2132,
    "department_code": "07",
    "insee_code": "07065",
    "zip_code": "07380",
    "name": "Chirols",
    "slug": "chirols",
    "gps_lat": 44.68793971962616,
    "gps_lng": 4.29331018691589
  },
  {
    "id": 2133,
    "department_code": "07",
    "insee_code": "07066",
    "zip_code": "07210",
    "name": "Chom\u00e9rac",
    "slug": "chomerac",
    "gps_lat": 44.7068773076923,
    "gps_lng": 4.66854012820513
  },
  {
    "id": 2134,
    "department_code": "07",
    "insee_code": "07067",
    "zip_code": "07430",
    "name": "Colombier-le-Cardinal",
    "slug": "colombier le cardinal",
    "gps_lat": 45.2638270909091,
    "gps_lng": 4.74203109090909
  },
  {
    "id": 2135,
    "department_code": "07",
    "insee_code": "07068",
    "zip_code": "07270",
    "name": "Colombier-le-Jeune",
    "slug": "colombier le jeune",
    "gps_lat": 45.01179000000003,
    "gps_lng": 4.7166049112426105
  },
  {
    "id": 2136,
    "department_code": "07",
    "insee_code": "07069",
    "zip_code": "07410",
    "name": "Colombier-le-Vieux",
    "slug": "colombier le vieux",
    "gps_lat": 45.06280196531794,
    "gps_lng": 4.70529219653179
  },
  {
    "id": 2137,
    "department_code": "07",
    "insee_code": "07070",
    "zip_code": "07130",
    "name": "Cornas",
    "slug": "cornas",
    "gps_lat": 44.9639726,
    "gps_lng": 4.8349295
  },
  {
    "id": 2138,
    "department_code": "07",
    "insee_code": "07071",
    "zip_code": "07470",
    "name": "Coucouron",
    "slug": "coucouron",
    "gps_lat": 44.79079239215685,
    "gps_lng": 3.95939470588235
  },
  {
    "id": 2139,
    "department_code": "07",
    "insee_code": "07072",
    "zip_code": "07000",
    "name": "Coux",
    "slug": "coux",
    "gps_lat": 44.7432401098901,
    "gps_lng": 4.6205654945055
  },
  {
    "id": 2140,
    "department_code": "07",
    "insee_code": "07073",
    "zip_code": "07270",
    "name": "Le Crestet",
    "slug": "le crestet",
    "gps_lat": 45.00922088235296,
    "gps_lng": 4.63358323529412
  },
  {
    "id": 2141,
    "department_code": "07",
    "insee_code": "07074",
    "zip_code": "07000",
    "name": "Creysseilles",
    "slug": "creysseilles",
    "gps_lat": 44.76097560606059,
    "gps_lng": 4.53078946969697
  },
  {
    "id": 2142,
    "department_code": "07",
    "insee_code": "07075",
    "zip_code": "07510",
    "name": "Cros-de-G\u00e9orand",
    "slug": "cros de georand",
    "gps_lat": 44.793443,
    "gps_lng": 4.125233
  },
  {
    "id": 2143,
    "department_code": "07",
    "insee_code": "07075",
    "zip_code": "07630",
    "name": "Cros-de-G\u00e9orand",
    "slug": "cros de georand",
    "gps_lat": 44.8605226,
    "gps_lng": 4.1206748
  },
  {
    "id": 2144,
    "department_code": "07",
    "insee_code": "07076",
    "zip_code": "07350",
    "name": "Cruas",
    "slug": "cruas",
    "gps_lat": 44.66134196969698,
    "gps_lng": 4.75357666666667
  },
  {
    "id": 2145,
    "department_code": "07",
    "insee_code": "07077",
    "zip_code": "07170",
    "name": "Darbres",
    "slug": "darbres",
    "gps_lat": 44.65737204188479,
    "gps_lng": 4.51604607329843
  },
  {
    "id": 2146,
    "department_code": "07",
    "insee_code": "07078",
    "zip_code": "07430",
    "name": "Dav\u00e9zieux",
    "slug": "davezieux",
    "gps_lat": 45.25269084337351,
    "gps_lng": 4.69237084337349
  },
  {
    "id": 2147,
    "department_code": "07",
    "insee_code": "07079",
    "zip_code": "07570",
    "name": "D\u00e9saignes",
    "slug": "desaignes",
    "gps_lat": 44.9968530976431,
    "gps_lng": 4.50139808080808
  },
  {
    "id": 2148,
    "department_code": "07",
    "insee_code": "07080",
    "zip_code": "07320",
    "name": "Devesset",
    "slug": "devesset",
    "gps_lat": 45.06878790513838,
    "gps_lng": 4.39704387351779
  },
  {
    "id": 2149,
    "department_code": "07",
    "insee_code": "07081",
    "zip_code": "07260",
    "name": "Dompnac",
    "slug": "dompnac",
    "gps_lat": 44.55845122302158,
    "gps_lng": 4.11003374100719
  },
  {
    "id": 2150,
    "department_code": "07",
    "insee_code": "07082",
    "zip_code": "07160",
    "name": "Dornas",
    "slug": "dornas",
    "gps_lat": 44.85382311258277,
    "gps_lng": 4.35718536423841
  },
  {
    "id": 2151,
    "department_code": "07",
    "insee_code": "07083",
    "zip_code": "07360",
    "name": "Duni\u00e8re-sur-Eyrieux",
    "slug": "duniere sur eyrieux",
    "gps_lat": 44.8348497810219,
    "gps_lng": 4.6487085401459805
  },
  {
    "id": 2152,
    "department_code": "07",
    "insee_code": "07084",
    "zip_code": "07370",
    "name": "Eclassan",
    "slug": "eclassan",
    "gps_lat": 45.15727116666666,
    "gps_lng": 4.74756994444444
  },
  {
    "id": 2153,
    "department_code": "07",
    "insee_code": "07085",
    "zip_code": "07270",
    "name": "Empurany",
    "slug": "empurany",
    "gps_lat": 45.02730581818184,
    "gps_lng": 4.59714078787879
  },
  {
    "id": 2154,
    "department_code": "07",
    "insee_code": "07086",
    "zip_code": "07300",
    "name": "\u00c9tables",
    "slug": "etables",
    "gps_lat": 45.09199764044945,
    "gps_lng": 4.73822696629213
  },
  {
    "id": 2155,
    "department_code": "07",
    "insee_code": "07087",
    "zip_code": "07380",
    "name": "Fabras",
    "slug": "fabras",
    "gps_lat": 44.64836090909089,
    "gps_lng": 4.28227958677686
  },
  {
    "id": 2156,
    "department_code": "07",
    "insee_code": "07088",
    "zip_code": "07230",
    "name": "Faug\u00e8res",
    "slug": "faugeres",
    "gps_lat": 44.48021024793389,
    "gps_lng": 4.13832157024793
  },
  {
    "id": 2157,
    "department_code": "07",
    "insee_code": "07089",
    "zip_code": "07340",
    "name": "F\u00e9lines",
    "slug": "felines",
    "gps_lat": 45.31966157480317,
    "gps_lng": 4.72870937007874
  },
  {
    "id": 2158,
    "department_code": "07",
    "insee_code": "07090",
    "zip_code": "07000",
    "name": "Flaviac",
    "slug": "flaviac",
    "gps_lat": 44.75264791666666,
    "gps_lng": 4.65922319444444
  },
  {
    "id": 2159,
    "department_code": "07",
    "insee_code": "07091",
    "zip_code": "07200",
    "name": "Fons",
    "slug": "fons",
    "gps_lat": 44.58138698630138,
    "gps_lng": 4.3546097260274
  },
  {
    "id": 2160,
    "department_code": "07",
    "insee_code": "07092",
    "zip_code": "07000",
    "name": "Freyssenet",
    "slug": "freyssenet",
    "gps_lat": 44.69126617021277,
    "gps_lng": 4.54996617021277
  },
  {
    "id": 2161,
    "department_code": "07",
    "insee_code": "07093",
    "zip_code": "07530",
    "name": "Genestelle",
    "slug": "genestelle",
    "gps_lat": 44.73305728624534,
    "gps_lng": 4.38492063197026
  },
  {
    "id": 2162,
    "department_code": "07",
    "insee_code": "07094",
    "zip_code": "07800",
    "name": "Gilhac-et-Bruzac",
    "slug": "gilhac et bruzac",
    "gps_lat": 44.86177220183488,
    "gps_lng": 4.74292279816514
  },
  {
    "id": 2163,
    "department_code": "07",
    "insee_code": "07095",
    "zip_code": "07270",
    "name": "Gilhoc-sur-Orm\u00e8ze",
    "slug": "gilhoc sur ormeze",
    "gps_lat": 44.98652427777776,
    "gps_lng": 4.67744333333333
  },
  {
    "id": 2164,
    "department_code": "07",
    "insee_code": "07096",
    "zip_code": "07190",
    "name": "Gluiras",
    "slug": "gluiras",
    "gps_lat": 44.84716354231975,
    "gps_lng": 4.52309815047022
  },
  {
    "id": 2165,
    "department_code": "07",
    "insee_code": "07097",
    "zip_code": "07300",
    "name": "Glun",
    "slug": "glun",
    "gps_lat": 45.00518818181819,
    "gps_lng": 4.82145875
  },
  {
    "id": 2166,
    "department_code": "07",
    "insee_code": "07098",
    "zip_code": "07000",
    "name": "Gourdon",
    "slug": "gourdon",
    "gps_lat": 44.72629874251498,
    "gps_lng": 4.45313353293413
  },
  {
    "id": 2167,
    "department_code": "07",
    "insee_code": "07099",
    "zip_code": "07700",
    "name": "Gras",
    "slug": "gras",
    "gps_lat": 44.43951451807229,
    "gps_lng": 4.53841475903615
  },
  {
    "id": 2168,
    "department_code": "07",
    "insee_code": "07100",
    "zip_code": "07140",
    "name": "Gravi\u00e8res",
    "slug": "gravieres",
    "gps_lat": 44.42190652941178,
    "gps_lng": 4.073372
  },
  {
    "id": 2169,
    "department_code": "07",
    "insee_code": "07101",
    "zip_code": "07120",
    "name": "Grospierres",
    "slug": "grospierres",
    "gps_lat": 44.39563700000001,
    "gps_lng": 4.28020522222222
  },
  {
    "id": 2170,
    "department_code": "07",
    "insee_code": "07102",
    "zip_code": "07500",
    "name": "Guilherand-Granges",
    "slug": "guilherand granges",
    "gps_lat": 44.93222514285715,
    "gps_lng": 4.85984485714286
  },
  {
    "id": 2171,
    "department_code": "07",
    "insee_code": "07103",
    "zip_code": "07310",
    "name": "Intres",
    "slug": "intres",
    "gps_lat": 44.9827269,
    "gps_lng": 4.362598
  },
  {
    "id": 2172,
    "department_code": "07",
    "insee_code": "07103",
    "zip_code": "07320",
    "name": "Intres",
    "slug": "intres",
    "gps_lat": 44.9827269,
    "gps_lng": 4.362598
  },
  {
    "id": 2173,
    "department_code": "07",
    "insee_code": "07104",
    "zip_code": "07190",
    "name": "Issamoulenc",
    "slug": "issamoulenc",
    "gps_lat": 44.78719802139037,
    "gps_lng": 4.45457042780749
  },
  {
    "id": 2174,
    "department_code": "07",
    "insee_code": "07105",
    "zip_code": "07510",
    "name": "Issanlas",
    "slug": "issanlas",
    "gps_lat": 44.765754,
    "gps_lng": 4.012147
  },
  {
    "id": 2175,
    "department_code": "07",
    "insee_code": "07105",
    "zip_code": "07660",
    "name": "Issanlas",
    "slug": "issanlas",
    "gps_lat": 44.765754,
    "gps_lng": 4.012147
  },
  {
    "id": 2176,
    "department_code": "07",
    "insee_code": "07106",
    "zip_code": "07470",
    "name": "Issarl\u00e8s",
    "slug": "issarles",
    "gps_lat": 44.85232875621895,
    "gps_lng": 4.05359174129353
  },
  {
    "id": 2177,
    "department_code": "07",
    "insee_code": "07107",
    "zip_code": "07380",
    "name": "Jaujac",
    "slug": "jaujac",
    "gps_lat": 44.63100734513274,
    "gps_lng": 4.23987017699115
  },
  {
    "id": 2178,
    "department_code": "07",
    "insee_code": "07108",
    "zip_code": "07160",
    "name": "Jaunac",
    "slug": "jaunac",
    "gps_lat": 44.92040239999999,
    "gps_lng": 4.39644573333333
  },
  {
    "id": 2179,
    "department_code": "07",
    "insee_code": "07109",
    "zip_code": "07110",
    "name": "Joannas",
    "slug": "joannas",
    "gps_lat": 44.57144581730771,
    "gps_lng": 4.25307995192308
  },
  {
    "id": 2180,
    "department_code": "07",
    "insee_code": "07110",
    "zip_code": "07260",
    "name": "Joyeuse",
    "slug": "joyeuse",
    "gps_lat": 44.47343822222221,
    "gps_lng": 4.24372533333333
  },
  {
    "id": 2181,
    "department_code": "07",
    "insee_code": "07111",
    "zip_code": "07600",
    "name": "Juvinas",
    "slug": "juvinas",
    "gps_lat": 44.7033168503937,
    "gps_lng": 4.3068657480315
  },
  {
    "id": 2182,
    "department_code": "07",
    "insee_code": "07112",
    "zip_code": "07600",
    "name": "Labastide-sur-B\u00e9sorgues",
    "slug": "labastide sur besorgues",
    "gps_lat": 44.74545906976746,
    "gps_lng": 4.30099403100775
  },
  {
    "id": 2183,
    "department_code": "07",
    "insee_code": "07113",
    "zip_code": "07150",
    "name": "Labastide-de-Virac",
    "slug": "labastide de virac",
    "gps_lat": 44.3606258730159,
    "gps_lng": 4.42029031746032
  },
  {
    "id": 2184,
    "department_code": "07",
    "insee_code": "07114",
    "zip_code": "07570",
    "name": "Labatie-d'Andaure",
    "slug": "labatie d andaure",
    "gps_lat": 45.03263216666667,
    "gps_lng": 4.49341375
  },
  {
    "id": 2185,
    "department_code": "07",
    "insee_code": "07115",
    "zip_code": "07120",
    "name": "Labeaume",
    "slug": "labeaume",
    "gps_lat": 44.46527007407408,
    "gps_lng": 4.31283762962963
  },
  {
    "id": 2186,
    "department_code": "07",
    "insee_code": "07116",
    "zip_code": "07200",
    "name": "Lab\u00e9gude",
    "slug": "labegude",
    "gps_lat": 44.63996770833333,
    "gps_lng": 4.36030708333333
  },
  {
    "id": 2187,
    "department_code": "07",
    "insee_code": "07117",
    "zip_code": "07230",
    "name": "Lablach\u00e8re",
    "slug": "lablachere",
    "gps_lat": 44.46207868686871,
    "gps_lng": 4.20880808080808
  },
  {
    "id": 2188,
    "department_code": "07",
    "insee_code": "07118",
    "zip_code": "07110",
    "name": "Laboule",
    "slug": "laboule",
    "gps_lat": 44.59199074626869,
    "gps_lng": 4.17399671641791
  },
  {
    "id": 2189,
    "department_code": "07",
    "insee_code": "07119",
    "zip_code": "07470",
    "name": "Le Lac-d'Issarl\u00e8s",
    "slug": "le lac d issarles",
    "gps_lat": 44.82589952941178,
    "gps_lng": 4.07424882352941
  },
  {
    "id": 2190,
    "department_code": "07",
    "insee_code": "07120",
    "zip_code": "07530",
    "name": "Lachamp-Rapha\u00ebl",
    "slug": "lachamp raphael",
    "gps_lat": 44.8011373880597,
    "gps_lng": 4.28445179104478
  },
  {
    "id": 2191,
    "department_code": "07",
    "insee_code": "07121",
    "zip_code": "07470",
    "name": "Lachapelle-Graillouse",
    "slug": "lachapelle graillouse",
    "gps_lat": 44.81214977591039,
    "gps_lng": 4.01573324929972
  },
  {
    "id": 2192,
    "department_code": "07",
    "insee_code": "07122",
    "zip_code": "07200",
    "name": "Lachapelle-sous-Aubenas",
    "slug": "lachapelle sous aubenas",
    "gps_lat": 44.56525027272726,
    "gps_lng": 4.35445427272727
  },
  {
    "id": 2193,
    "department_code": "07",
    "insee_code": "07123",
    "zip_code": "07310",
    "name": "Lachapelle-sous-Chan\u00e9ac",
    "slug": "lachapelle sous chaneac",
    "gps_lat": 44.95279684684684,
    "gps_lng": 4.31756036036036
  },
  {
    "id": 2194,
    "department_code": "07",
    "insee_code": "07124",
    "zip_code": "07520",
    "name": "Lafarre",
    "slug": "lafarre",
    "gps_lat": 45.07544299999999,
    "gps_lng": 4.51161030769231
  },
  {
    "id": 2195,
    "department_code": "07",
    "insee_code": "07126",
    "zip_code": "07150",
    "name": "Lagorce",
    "slug": "lagorce",
    "gps_lat": 44.44129632432432,
    "gps_lng": 4.42713783783784
  },
  {
    "id": 2196,
    "department_code": "07",
    "insee_code": "07127",
    "zip_code": "07380",
    "name": "Lalevade-d'Ard\u00e8che",
    "slug": "lalevade d ardeche",
    "gps_lat": 44.65216186046511,
    "gps_lng": 4.3124876744186
  },
  {
    "id": 2197,
    "department_code": "07",
    "insee_code": "07128",
    "zip_code": "07520",
    "name": "Lalouvesc",
    "slug": "lalouvesc",
    "gps_lat": 45.11394873015874,
    "gps_lng": 4.52121634920635
  },
  {
    "id": 2198,
    "department_code": "07",
    "insee_code": "07129",
    "zip_code": "07270",
    "name": "Lamastre",
    "slug": "lamastre",
    "gps_lat": 44.983244341637,
    "gps_lng": 4.5942376156583595
  },
  {
    "id": 2199,
    "department_code": "07",
    "insee_code": "07130",
    "zip_code": "07660",
    "name": "Lanarce",
    "slug": "lanarce",
    "gps_lat": 44.72136485714283,
    "gps_lng": 3.9954910952380898
  },
  {
    "id": 2200,
    "department_code": "07",
    "insee_code": "07131",
    "zip_code": "07200",
    "name": "Lanas",
    "slug": "lanas",
    "gps_lat": 44.53343897959185,
    "gps_lng": 4.38736510204082
  },
  {
    "id": 2201,
    "department_code": "07",
    "insee_code": "07132",
    "zip_code": "07110",
    "name": "Largenti\u00e8re",
    "slug": "largentiere",
    "gps_lat": 44.5354665625,
    "gps_lng": 4.299646015625
  },
  {
    "id": 2202,
    "department_code": "07",
    "insee_code": "07133",
    "zip_code": "07220",
    "name": "Larnas",
    "slug": "larnas",
    "gps_lat": 44.45466918181817,
    "gps_lng": 4.59731063636364
  },
  {
    "id": 2203,
    "department_code": "07",
    "insee_code": "07134",
    "zip_code": "07110",
    "name": "Laurac-en-Vivarais",
    "slug": "laurac en vivarais",
    "gps_lat": 44.50944770370371,
    "gps_lng": 4.28452733333333
  },
  {
    "id": 2204,
    "department_code": "07",
    "insee_code": "07135",
    "zip_code": "07590",
    "name": "Laval-d'Aurelle",
    "slug": "laval d aurelle",
    "gps_lat": 44.57496732876714,
    "gps_lng": 3.9752101369863
  },
  {
    "id": 2205,
    "department_code": "07",
    "insee_code": "07136",
    "zip_code": "48250",
    "name": "Laveyrune",
    "slug": "laveyrune",
    "gps_lat": 44.618500176991176,
    "gps_lng": 3.91498769911505
  },
  {
    "id": 2206,
    "department_code": "07",
    "insee_code": "07137",
    "zip_code": "07660",
    "name": "Lavillatte",
    "slug": "lavillatte",
    "gps_lat": 44.74349187845304,
    "gps_lng": 3.95529375690608
  },
  {
    "id": 2207,
    "department_code": "07",
    "insee_code": "07138",
    "zip_code": "07170",
    "name": "Lavilledieu",
    "slug": "lavilledieu",
    "gps_lat": 44.58534410526315,
    "gps_lng": 4.44633252631579
  },
  {
    "id": 2208,
    "department_code": "07",
    "insee_code": "07139",
    "zip_code": "07530",
    "name": "Laviolle",
    "slug": "laviolle",
    "gps_lat": 44.76061900000001,
    "gps_lng": 4.33645390909091
  },
  {
    "id": 2209,
    "department_code": "07",
    "insee_code": "07140",
    "zip_code": "07610",
    "name": "Lemps",
    "slug": "lemps",
    "gps_lat": 45.09400881516587,
    "gps_lng": 4.77758113744076
  },
  {
    "id": 2210,
    "department_code": "07",
    "insee_code": "07141",
    "zip_code": "07200",
    "name": "Lentill\u00e8res",
    "slug": "lentilleres",
    "gps_lat": 44.60719887323943,
    "gps_lng": 4.30056612676056
  },
  {
    "id": 2211,
    "department_code": "07",
    "insee_code": "07142",
    "zip_code": "07660",
    "name": "Lesp\u00e9ron",
    "slug": "lesperon",
    "gps_lat": 44.73287296610167,
    "gps_lng": 3.88878084745763
  },
  {
    "id": 2212,
    "department_code": "07",
    "insee_code": "07143",
    "zip_code": "07340",
    "name": "Limony",
    "slug": "limony",
    "gps_lat": 45.35139112359553,
    "gps_lng": 4.74682629213483
  },
  {
    "id": 2213,
    "department_code": "07",
    "insee_code": "07144",
    "zip_code": "07110",
    "name": "Loubaresse",
    "slug": "loubaresse",
    "gps_lat": 44.58972408759122,
    "gps_lng": 4.05099058394161
  },
  {
    "id": 2214,
    "department_code": "07",
    "insee_code": "07145",
    "zip_code": "07170",
    "name": "Lussas",
    "slug": "lussas",
    "gps_lat": 44.61979555555556,
    "gps_lng": 4.46382754385965
  },
  {
    "id": 2215,
    "department_code": "07",
    "insee_code": "07146",
    "zip_code": "07000",
    "name": "Lyas",
    "slug": "lyas",
    "gps_lat": 44.75031932330828,
    "gps_lng": 4.59962037593985
  },
  {
    "id": 2216,
    "department_code": "07",
    "insee_code": "07147",
    "zip_code": "07140",
    "name": "Malarce-sur-la-Thines",
    "slug": "malarce sur la thines",
    "gps_lat": 44.4700225547445,
    "gps_lng": 4.04910270072993
  },
  {
    "id": 2217,
    "department_code": "07",
    "insee_code": "07148",
    "zip_code": "07140",
    "name": "Malbosc",
    "slug": "malbosc",
    "gps_lat": 44.34716734375002,
    "gps_lng": 4.07085171875
  },
  {
    "id": 2218,
    "department_code": "07",
    "insee_code": "07149",
    "zip_code": "07190",
    "name": "Marcols-les-Eaux",
    "slug": "marcols les eaux",
    "gps_lat": 44.8061529447853,
    "gps_lng": 4.38838012269939
  },
  {
    "id": 2219,
    "department_code": "07",
    "insee_code": "07150",
    "zip_code": "07160",
    "name": "Mariac",
    "slug": "mariac",
    "gps_lat": 44.8871699082569,
    "gps_lng": 4.35305233944954
  },
  {
    "id": 2220,
    "department_code": "07",
    "insee_code": "07151",
    "zip_code": "07320",
    "name": "Mars",
    "slug": "mars",
    "gps_lat": 45.00759898373979,
    "gps_lng": 4.33408203252033
  },
  {
    "id": 2221,
    "department_code": "07",
    "insee_code": "07152",
    "zip_code": "07300",
    "name": "Mauves",
    "slug": "mauves",
    "gps_lat": 45.03089134020618,
    "gps_lng": 4.81850639175258
  },
  {
    "id": 2222,
    "department_code": "07",
    "insee_code": "07153",
    "zip_code": "07330",
    "name": "Mayres",
    "slug": "mayres",
    "gps_lat": 44.66368246835442,
    "gps_lng": 4.1002685443038
  },
  {
    "id": 2223,
    "department_code": "07",
    "insee_code": "07154",
    "zip_code": "07510",
    "name": "Mazan-l'Abbaye",
    "slug": "mazan l abbaye",
    "gps_lat": 44.73177378723405,
    "gps_lng": 4.09026417021277
  },
  {
    "id": 2224,
    "department_code": "07",
    "insee_code": "07155",
    "zip_code": "07200",
    "name": "Mercuer",
    "slug": "mercuer",
    "gps_lat": 44.62808170940171,
    "gps_lng": 4.3506830769230795
  },
  {
    "id": 2225,
    "department_code": "07",
    "insee_code": "07156",
    "zip_code": "07380",
    "name": "Meyras",
    "slug": "meyras",
    "gps_lat": 44.67906928104575,
    "gps_lng": 4.25839973856209
  },
  {
    "id": 2226,
    "department_code": "07",
    "insee_code": "07157",
    "zip_code": "07400",
    "name": "Meysse",
    "slug": "meysse",
    "gps_lat": 44.61782120689656,
    "gps_lng": 4.69942068965517
  },
  {
    "id": 2227,
    "department_code": "07",
    "insee_code": "07158",
    "zip_code": "07530",
    "name": "M\u00e9zilhac",
    "slug": "mezilhac",
    "gps_lat": 44.80703648780489,
    "gps_lng": 4.34885863414634
  },
  {
    "id": 2228,
    "department_code": "07",
    "insee_code": "07159",
    "zip_code": "07170",
    "name": "Mirabel",
    "slug": "mirabel",
    "gps_lat": 44.60254241228072,
    "gps_lng": 4.50294877192983
  },
  {
    "id": 2229,
    "department_code": "07",
    "insee_code": "07160",
    "zip_code": "07690",
    "name": "Monestier",
    "slug": "monestier",
    "gps_lat": 45.2030109375,
    "gps_lng": 4.505908125
  },
  {
    "id": 2230,
    "department_code": "07",
    "insee_code": "07161",
    "zip_code": "07560",
    "name": "Montpezat-sous-Bauzon",
    "slug": "montpezat sous bauzon",
    "gps_lat": 44.71673517948719,
    "gps_lng": 4.19820553846154
  },
  {
    "id": 2231,
    "department_code": "07",
    "insee_code": "07162",
    "zip_code": "07110",
    "name": "Montr\u00e9al",
    "slug": "montreal",
    "gps_lat": 44.51595618055556,
    "gps_lng": 4.29444798611111
  },
  {
    "id": 2232,
    "department_code": "07",
    "insee_code": "07163",
    "zip_code": "07140",
    "name": "Montselgues",
    "slug": "montselgues",
    "gps_lat": 44.52415982035929,
    "gps_lng": 4.00448604790419
  },
  {
    "id": 2233,
    "department_code": "07",
    "insee_code": "07165",
    "zip_code": "07160",
    "name": "Noni\u00e8res",
    "slug": "nonieres",
    "gps_lat": 44.92979465909091,
    "gps_lng": 4.47610545454545
  },
  {
    "id": 2234,
    "department_code": "07",
    "insee_code": "07166",
    "zip_code": "07270",
    "name": "Nozi\u00e8res",
    "slug": "nozieres",
    "gps_lat": 45.03616067901235,
    "gps_lng": 4.54366296296296
  },
  {
    "id": 2235,
    "department_code": "07",
    "insee_code": "07167",
    "zip_code": "07360",
    "name": "Les Olli\u00e8res-sur-Eyrieux",
    "slug": "les ollieres sur eyrieux",
    "gps_lat": 44.80841757142858,
    "gps_lng": 4.619039
  },
  {
    "id": 2236,
    "department_code": "07",
    "insee_code": "07168",
    "zip_code": "07150",
    "name": "Orgnac-l'Aven",
    "slug": "orgnac l aven",
    "gps_lat": 44.29319420454546,
    "gps_lng": 4.42265465909091
  },
  {
    "id": 2237,
    "department_code": "07",
    "insee_code": "07169",
    "zip_code": "07370",
    "name": "Ozon",
    "slug": "ozon",
    "gps_lat": 45.16340489208633,
    "gps_lng": 4.79332928057554
  },
  {
    "id": 2238,
    "department_code": "07",
    "insee_code": "07170",
    "zip_code": "07410",
    "name": "Pailhar\u00e8s",
    "slug": "pailhares",
    "gps_lat": 45.07460831395351,
    "gps_lng": 4.55497360465116
  },
  {
    "id": 2239,
    "department_code": "07",
    "insee_code": "07171",
    "zip_code": "07230",
    "name": "Payzac",
    "slug": "payzac",
    "gps_lat": 44.45545569230769,
    "gps_lng": 4.14796523076923
  },
  {
    "id": 2240,
    "department_code": "07",
    "insee_code": "07172",
    "zip_code": "07340",
    "name": "Peaugres",
    "slug": "peaugres",
    "gps_lat": 45.28501209876544,
    "gps_lng": 4.7407987654321
  },
  {
    "id": 2241,
    "department_code": "07",
    "insee_code": "07173",
    "zip_code": "07450",
    "name": "P\u00e9reyres",
    "slug": "pereyres",
    "gps_lat": 44.77708228070176,
    "gps_lng": 4.25758192982456
  },
  {
    "id": 2242,
    "department_code": "07",
    "insee_code": "07174",
    "zip_code": "07340",
    "name": "Peyraud",
    "slug": "peyraud",
    "gps_lat": 45.29515786516853,
    "gps_lng": 4.77615629213483
  },
  {
    "id": 2243,
    "department_code": "07",
    "insee_code": "07175",
    "zip_code": "07590",
    "name": "Le Plagnal",
    "slug": "le plagnal",
    "gps_lat": 44.69416750000001,
    "gps_lng": 3.945137421875
  },
  {
    "id": 2244,
    "department_code": "07",
    "insee_code": "07176",
    "zip_code": "07230",
    "name": "Planzolles",
    "slug": "planzolles",
    "gps_lat": 44.48623678899083,
    "gps_lng": 4.15931614678899
  },
  {
    "id": 2245,
    "department_code": "07",
    "insee_code": "07177",
    "zip_code": "07300",
    "name": "Plats",
    "slug": "plats",
    "gps_lat": 45.0162222222222,
    "gps_lng": 4.77683895424837
  },
  {
    "id": 2246,
    "department_code": "07",
    "insee_code": "07178",
    "zip_code": "07380",
    "name": "Pont-de-Labeaume",
    "slug": "pont de labeaume",
    "gps_lat": 44.66618954545453,
    "gps_lng": 4.29529829545455
  },
  {
    "id": 2247,
    "department_code": "07",
    "insee_code": "07179",
    "zip_code": "07000",
    "name": "Pourch\u00e8res",
    "slug": "pourcheres",
    "gps_lat": 44.7412936904762,
    "gps_lng": 4.51181571428571
  },
  {
    "id": 2248,
    "department_code": "07",
    "insee_code": "07181",
    "zip_code": "07250",
    "name": "Le Pouzin",
    "slug": "le pouzin",
    "gps_lat": 44.75150810126582,
    "gps_lng": 4.7463529113924
  },
  {
    "id": 2249,
    "department_code": "07",
    "insee_code": "07182",
    "zip_code": "07380",
    "name": "Prades",
    "slug": "prades",
    "gps_lat": 44.63383355140187,
    "gps_lng": 4.30785841121495
  },
  {
    "id": 2250,
    "department_code": "07",
    "insee_code": "07183",
    "zip_code": "07120",
    "name": "Pradons",
    "slug": "pradons",
    "gps_lat": 44.47192303370786,
    "gps_lng": 4.37694370786517
  },
  {
    "id": 2251,
    "department_code": "07",
    "insee_code": "07184",
    "zip_code": "07000",
    "name": "Pranles",
    "slug": "pranles",
    "gps_lat": 44.78627754385966,
    "gps_lng": 4.57452122807018
  },
  {
    "id": 2252,
    "department_code": "07",
    "insee_code": "07185",
    "zip_code": "07290",
    "name": "Pr\u00e9aux",
    "slug": "preaux",
    "gps_lat": 45.13982374999999,
    "gps_lng": 4.6544961718749995
  },
  {
    "id": 2253,
    "department_code": "07",
    "insee_code": "07186",
    "zip_code": "07000",
    "name": "Privas",
    "slug": "privas",
    "gps_lat": 44.72443155172416,
    "gps_lng": 4.59073454022988
  },
  {
    "id": 2254,
    "department_code": "07",
    "insee_code": "07187",
    "zip_code": "07110",
    "name": "Prunet",
    "slug": "prunet",
    "gps_lat": 44.59494702702704,
    "gps_lng": 4.25626648648649
  },
  {
    "id": 2255,
    "department_code": "07",
    "insee_code": "07188",
    "zip_code": "07290",
    "name": "Quintenas",
    "slug": "quintenas",
    "gps_lat": 45.19828133333332,
    "gps_lng": 4.70467066666667
  },
  {
    "id": 2256,
    "department_code": "07",
    "insee_code": "07189",
    "zip_code": "07260",
    "name": "Ribes",
    "slug": "ribes",
    "gps_lat": 44.50466011627906,
    "gps_lng": 4.19835209302326
  },
  {
    "id": 2257,
    "department_code": "07",
    "insee_code": "07190",
    "zip_code": "07200",
    "name": "Rochecolombe",
    "slug": "rochecolombe",
    "gps_lat": 44.52175674846625,
    "gps_lng": 4.45167773006135
  },
  {
    "id": 2258,
    "department_code": "07",
    "insee_code": "07191",
    "zip_code": "07400",
    "name": "Rochemaure",
    "slug": "rochemaure",
    "gps_lat": 44.59023569444446,
    "gps_lng": 4.69134743055556
  },
  {
    "id": 2259,
    "department_code": "07",
    "insee_code": "07192",
    "zip_code": "07320",
    "name": "Rochepaule",
    "slug": "rochepaule",
    "gps_lat": 45.08671957854406,
    "gps_lng": 4.46540448275862
  },
  {
    "id": 2260,
    "department_code": "07",
    "insee_code": "07193",
    "zip_code": "07110",
    "name": "Rocher",
    "slug": "rocher",
    "gps_lat": 44.57905560975609,
    "gps_lng": 4.27746304878049
  },
  {
    "id": 2261,
    "department_code": "07",
    "insee_code": "07194",
    "zip_code": "07210",
    "name": "Rochessauve",
    "slug": "rochessauve",
    "gps_lat": 44.68263151079135,
    "gps_lng": 4.61187827338129
  },
  {
    "id": 2262,
    "department_code": "07",
    "insee_code": "07195",
    "zip_code": "07310",
    "name": "La Rochette",
    "slug": "la rochette",
    "gps_lat": 44.92327191304349,
    "gps_lng": 4.23780443478261
  },
  {
    "id": 2263,
    "department_code": "07",
    "insee_code": "07196",
    "zip_code": "07110",
    "name": "Rocles",
    "slug": "rocles",
    "gps_lat": 44.56823333333332,
    "gps_lng": 4.20741760416667
  },
  {
    "id": 2264,
    "department_code": "07",
    "insee_code": "07197",
    "zip_code": "07100",
    "name": "Roiffieux",
    "slug": "roiffieux",
    "gps_lat": 45.22408395833335,
    "gps_lng": 4.65842307291667
  },
  {
    "id": 2265,
    "department_code": "07",
    "insee_code": "07198",
    "zip_code": "07250",
    "name": "Rompon",
    "slug": "rompon",
    "gps_lat": 44.7813992,
    "gps_lng": 4.7174062
  },
  {
    "id": 2266,
    "department_code": "07",
    "insee_code": "07198",
    "zip_code": "07800",
    "name": "Rompon",
    "slug": "rompon",
    "gps_lat": 44.7813992,
    "gps_lng": 4.7174062
  },
  {
    "id": 2267,
    "department_code": "07",
    "insee_code": "07199",
    "zip_code": "07260",
    "name": "Rosi\u00e8res",
    "slug": "rosieres",
    "gps_lat": 44.49496058064519,
    "gps_lng": 4.26046729032258
  },
  {
    "id": 2268,
    "department_code": "07",
    "insee_code": "07200",
    "zip_code": "07560",
    "name": "Le Roux",
    "slug": "le roux",
    "gps_lat": 44.72440571428569,
    "gps_lng": 4.14372037593985
  },
  {
    "id": 2269,
    "department_code": "07",
    "insee_code": "07201",
    "zip_code": "07120",
    "name": "Ruoms",
    "slug": "ruoms",
    "gps_lat": 44.44928492063493,
    "gps_lng": 4.35435238095238
  },
  {
    "id": 2270,
    "department_code": "07",
    "insee_code": "07202",
    "zip_code": "07260",
    "name": "Sabli\u00e8res",
    "slug": "sablieres",
    "gps_lat": 44.54389309523813,
    "gps_lng": 4.06845198412698
  },
  {
    "id": 2271,
    "department_code": "07",
    "insee_code": "07203",
    "zip_code": "07450",
    "name": "Sagnes-et-Goudoulet",
    "slug": "sagnes et goudoulet",
    "gps_lat": 44.80222788461539,
    "gps_lng": 4.21566147435898
  },
  {
    "id": 2272,
    "department_code": "07",
    "insee_code": "07204",
    "zip_code": "07320",
    "name": "Saint-Agr\u00e8ve",
    "slug": "saint agreve",
    "gps_lat": 44.99939283746557,
    "gps_lng": 4.4105217630854
  },
  {
    "id": 2273,
    "department_code": "07",
    "insee_code": "07205",
    "zip_code": "07790",
    "name": "Saint-Alban-d'Ay",
    "slug": "saint alban d ay",
    "gps_lat": 45.18362173913044,
    "gps_lng": 4.63142847826087
  },
  {
    "id": 2274,
    "department_code": "07",
    "insee_code": "07206",
    "zip_code": "07590",
    "name": "Saint-Alban-en-Montagne",
    "slug": "saint alban en montagne",
    "gps_lat": 44.70809061797753,
    "gps_lng": 3.917765
  },
  {
    "id": 2275,
    "department_code": "07",
    "insee_code": "07207",
    "zip_code": "07120",
    "name": "Saint-Alban-Auriolles",
    "slug": "saint alban auriolles",
    "gps_lat": 44.43512827586208,
    "gps_lng": 4.29143917241379
  },
  {
    "id": 2276,
    "department_code": "07",
    "insee_code": "07208",
    "zip_code": "07170",
    "name": "Saint-And\u00e9ol-de-Berg",
    "slug": "saint andeol de berg",
    "gps_lat": 44.53125887417214,
    "gps_lng": 4.53591377483444
  },
  {
    "id": 2277,
    "department_code": "07",
    "insee_code": "07209",
    "zip_code": "07160",
    "name": "Saint-And\u00e9ol-de-Fourchades",
    "slug": "saint andeol de fourchades",
    "gps_lat": 44.84465457746484,
    "gps_lng": 4.29001781690141
  },
  {
    "id": 2278,
    "department_code": "07",
    "insee_code": "07210",
    "zip_code": "07600",
    "name": "Saint-And\u00e9ol-de-Vals",
    "slug": "saint andeol de vals",
    "gps_lat": 44.69633025641023,
    "gps_lng": 4.40665124542125
  },
  {
    "id": 2279,
    "department_code": "07",
    "insee_code": "07211",
    "zip_code": "07460",
    "name": "Saint-Andr\u00e9-de-Cruzi\u00e8res",
    "slug": "saint andre de cruzieres",
    "gps_lat": 44.32268173228347,
    "gps_lng": 4.20725881889764
  },
  {
    "id": 2280,
    "department_code": "07",
    "insee_code": "07212",
    "zip_code": "07690",
    "name": "Saint-Andr\u00e9-en-Vivarais",
    "slug": "saint andre en vivarais",
    "gps_lat": 45.11493339552237,
    "gps_lng": 4.4145272761194
  },
  {
    "id": 2281,
    "department_code": "07",
    "insee_code": "07213",
    "zip_code": "07230",
    "name": "Saint-Andr\u00e9-Lachamp",
    "slug": "saint andre lachamp",
    "gps_lat": 44.50799710144928,
    "gps_lng": 4.15401526570048
  },
  {
    "id": 2282,
    "department_code": "07",
    "insee_code": "07214",
    "zip_code": "07240",
    "name": "Saint-Apollinaire-de-Rias",
    "slug": "saint apollinaire de rias",
    "gps_lat": 44.91880813664596,
    "gps_lng": 4.59107173913043
  },
  {
    "id": 2283,
    "department_code": "07",
    "insee_code": "07215",
    "zip_code": "07160",
    "name": "Saint-Barth\u00e9lemy-le-Meil",
    "slug": "saint barthelemy le meil",
    "gps_lat": 44.88286031007753,
    "gps_lng": 4.47954434108527
  },
  {
    "id": 2284,
    "department_code": "07",
    "insee_code": "07216",
    "zip_code": "07270",
    "name": "Saint-Barth\u00e9lemy-Grozon",
    "slug": "saint barthelemy grozon",
    "gps_lat": 44.95976661375664,
    "gps_lng": 4.65255402116402
  },
  {
    "id": 2285,
    "department_code": "07",
    "insee_code": "07217",
    "zip_code": "07300",
    "name": "Saint-Barth\u00e9lemy-le-Plain",
    "slug": "saint barthelemy le plain",
    "gps_lat": 45.04827338235292,
    "gps_lng": 4.74985759803922
  },
  {
    "id": 2286,
    "department_code": "07",
    "insee_code": "07218",
    "zip_code": "07270",
    "name": "Saint-Basile",
    "slug": "saint basile",
    "gps_lat": 44.94955021428571,
    "gps_lng": 4.56097707142857
  },
  {
    "id": 2287,
    "department_code": "07",
    "insee_code": "07219",
    "zip_code": "07210",
    "name": "Saint-Bauzile",
    "slug": "saint bauzile",
    "gps_lat": 44.67277871287128,
    "gps_lng": 4.66263415841584
  },
  {
    "id": 2288,
    "department_code": "07",
    "insee_code": "07220",
    "zip_code": "07160",
    "name": "Saint-Christol",
    "slug": "saint christol",
    "gps_lat": 44.86894675324674,
    "gps_lng": 4.44455610389611
  },
  {
    "id": 2289,
    "department_code": "07",
    "insee_code": "07221",
    "zip_code": "07800",
    "name": "Saint-Cierge-la-Serre",
    "slug": "saint cierge la serre",
    "gps_lat": 44.7919579787234,
    "gps_lng": 4.67330808510638
  },
  {
    "id": 2290,
    "department_code": "07",
    "insee_code": "07222",
    "zip_code": "07160",
    "name": "Saint-Cierge-sous-le-Cheylard",
    "slug": "saint cierge sous le cheylard",
    "gps_lat": 44.92598859813086,
    "gps_lng": 4.45160037383178
  },
  {
    "id": 2291,
    "department_code": "07",
    "insee_code": "07223",
    "zip_code": "07380",
    "name": "Saint-Cirgues-de-Prades",
    "slug": "saint cirgues de prades",
    "gps_lat": 44.62205662162162,
    "gps_lng": 4.27586391891892
  },
  {
    "id": 2292,
    "department_code": "07",
    "insee_code": "07224",
    "zip_code": "07510",
    "name": "Saint-Cirgues-en-Montagne",
    "slug": "saint cirgues en montagne",
    "gps_lat": 44.77002546666667,
    "gps_lng": 4.08905271111111
  },
  {
    "id": 2293,
    "department_code": "07",
    "insee_code": "07225",
    "zip_code": "07430",
    "name": "Saint-Clair",
    "slug": "saint clair",
    "gps_lat": 45.27805507042254,
    "gps_lng": 4.68327873239437
  },
  {
    "id": 2294,
    "department_code": "07",
    "insee_code": "07226",
    "zip_code": "07310",
    "name": "Saint-Cl\u00e9ment",
    "slug": "saint clement",
    "gps_lat": 44.94809281609196,
    "gps_lng": 4.26430045977011
  },
  {
    "id": 2295,
    "department_code": "07",
    "insee_code": "07227",
    "zip_code": "07430",
    "name": "Saint-Cyr",
    "slug": "saint cyr",
    "gps_lat": 45.25497474576272,
    "gps_lng": 4.73826508474576
  },
  {
    "id": 2296,
    "department_code": "07",
    "insee_code": "07228",
    "zip_code": "07340",
    "name": "Saint-D\u00e9sirat",
    "slug": "saint desirat",
    "gps_lat": 45.26065536585367,
    "gps_lng": 4.78444585365854
  },
  {
    "id": 2297,
    "department_code": "07",
    "insee_code": "07229",
    "zip_code": "07200",
    "name": "Saint-Didier-sous-Aubenas",
    "slug": "saint didier sous aubenas",
    "gps_lat": 44.60926047619045,
    "gps_lng": 4.42251841269841
  },
  {
    "id": 2298,
    "department_code": "07",
    "insee_code": "07230",
    "zip_code": "07200",
    "name": "Saint-\u00c9tienne-de-Boulogne",
    "slug": "saint etienne de boulogne",
    "gps_lat": 44.70152946902655,
    "gps_lng": 4.46949495575221
  },
  {
    "id": 2299,
    "department_code": "07",
    "insee_code": "07231",
    "zip_code": "07200",
    "name": "Saint-\u00c9tienne-de-Fontbellon",
    "slug": "saint etienne de fontbellon",
    "gps_lat": 44.59570086330937,
    "gps_lng": 4.37814035971223
  },
  {
    "id": 2300,
    "department_code": "07",
    "insee_code": "07232",
    "zip_code": "07590",
    "name": "Saint-\u00c9tienne-de-Lugdar\u00e8s",
    "slug": "saint etienne de lugdares",
    "gps_lat": 44.6450058536585,
    "gps_lng": 3.97160697560975
  },
  {
    "id": 2301,
    "department_code": "07",
    "insee_code": "07233",
    "zip_code": "07190",
    "name": "Saint-\u00c9tienne-de-Serre",
    "slug": "saint etienne de serre",
    "gps_lat": 44.80367807228918,
    "gps_lng": 4.52319963855422
  },
  {
    "id": 2302,
    "department_code": "07",
    "insee_code": "07234",
    "zip_code": "07340",
    "name": "Saint-\u00c9tienne-de-Valoux",
    "slug": "saint etienne de valoux",
    "gps_lat": 45.243118125,
    "gps_lng": 4.7804715625
  },
  {
    "id": 2303,
    "department_code": "07",
    "insee_code": "07235",
    "zip_code": "07510",
    "name": "Sainte-Eulalie",
    "slug": "sainte eulalie",
    "gps_lat": 44.82356148809523,
    "gps_lng": 4.18399535714286
  },
  {
    "id": 2304,
    "department_code": "07",
    "insee_code": "07236",
    "zip_code": "07410",
    "name": "Saint-F\u00e9licien",
    "slug": "saint felicien",
    "gps_lat": 45.0745454,
    "gps_lng": 4.60726385
  },
  {
    "id": 2305,
    "department_code": "07",
    "insee_code": "07237",
    "zip_code": "07360",
    "name": "Saint-Fortunat-sur-Eyrieux",
    "slug": "saint fortunat sur eyrieux",
    "gps_lat": 44.83175581560284,
    "gps_lng": 4.68440007092199
  },
  {
    "id": 2306,
    "department_code": "07",
    "insee_code": "07238",
    "zip_code": "07230",
    "name": "Saint-Genest-de-Beauzon",
    "slug": "saint genest de beauzon",
    "gps_lat": 44.44441067226892,
    "gps_lng": 4.18928033613445
  },
  {
    "id": 2307,
    "department_code": "07",
    "insee_code": "07239",
    "zip_code": "07160",
    "name": "Saint-Genest-Lachamp",
    "slug": "saint genest lachamp",
    "gps_lat": 44.846943,
    "gps_lng": 4.422978
  },
  {
    "id": 2308,
    "department_code": "07",
    "insee_code": "07239",
    "zip_code": "07190",
    "name": "Saint-Genest-Lachamp",
    "slug": "saint genest lachamp",
    "gps_lat": 44.846943,
    "gps_lng": 4.422978
  },
  {
    "id": 2309,
    "department_code": "07",
    "insee_code": "07240",
    "zip_code": "07800",
    "name": "Saint-Georges-les-Bains",
    "slug": "saint georges les bains",
    "gps_lat": 44.86066274725276,
    "gps_lng": 4.80476318681318
  },
  {
    "id": 2310,
    "department_code": "07",
    "insee_code": "07241",
    "zip_code": "07170",
    "name": "Saint-Germain",
    "slug": "saint germain",
    "gps_lat": 44.55322983193281,
    "gps_lng": 4.45072932773109
  },
  {
    "id": 2311,
    "department_code": "07",
    "insee_code": "07242",
    "zip_code": "07580",
    "name": "Saint-Gineis-en-Coiron",
    "slug": "saint gineis en coiron",
    "gps_lat": 44.63411989847716,
    "gps_lng": 4.53686868020305
  },
  {
    "id": 2312,
    "department_code": "07",
    "insee_code": "07243",
    "zip_code": "07340",
    "name": "Saint-Jacques-d'Atticieux",
    "slug": "saint jacques d atticieux",
    "gps_lat": 45.33580653465347,
    "gps_lng": 4.66890455445545
  },
  {
    "id": 2313,
    "department_code": "07",
    "insee_code": "07244",
    "zip_code": "07240",
    "name": "Saint-Jean-Chambre",
    "slug": "saint jean chambre",
    "gps_lat": 44.90967411347515,
    "gps_lng": 4.55779489361702
  },
  {
    "id": 2314,
    "department_code": "07",
    "insee_code": "07245",
    "zip_code": "07300",
    "name": "Saint-Jean-de-Muzols",
    "slug": "saint jean de muzols",
    "gps_lat": 45.0766908411215,
    "gps_lng": 4.7941393457944
  },
  {
    "id": 2315,
    "department_code": "07",
    "insee_code": "07247",
    "zip_code": "07580",
    "name": "Saint-Jean-le-Centenier",
    "slug": "saint jean le centenier",
    "gps_lat": 44.58690957446808,
    "gps_lng": 4.53833493617021
  },
  {
    "id": 2316,
    "department_code": "07",
    "insee_code": "07248",
    "zip_code": "07160",
    "name": "Saint-Jean-Roure",
    "slug": "saint jean roure",
    "gps_lat": 44.9539446969697,
    "gps_lng": 4.4164585606060704
  },
  {
    "id": 2317,
    "department_code": "07",
    "insee_code": "07249",
    "zip_code": "07320",
    "name": "Saint-Jeure-d'Andaure",
    "slug": "saint jeure d andaure",
    "gps_lat": 45.0496526506024,
    "gps_lng": 4.46526253012048
  },
  {
    "id": 2318,
    "department_code": "07",
    "insee_code": "07250",
    "zip_code": "07290",
    "name": "Saint-Jeure-d'Ay",
    "slug": "saint jeure d ay",
    "gps_lat": 45.14511623655913,
    "gps_lng": 4.71104956989247
  },
  {
    "id": 2319,
    "department_code": "07",
    "insee_code": "07251",
    "zip_code": "07530",
    "name": "Saint-Joseph-des-Bancs",
    "slug": "saint joseph des bancs",
    "gps_lat": 44.74926523178809,
    "gps_lng": 4.40984430463576
  },
  {
    "id": 2320,
    "department_code": "07",
    "insee_code": "07252",
    "zip_code": "07310",
    "name": "Saint-Julien-Bouti\u00e8res",
    "slug": "saint julien boutieres",
    "gps_lat": 44.97055,
    "gps_lng": 4.33918451923077
  },
  {
    "id": 2321,
    "department_code": "07",
    "insee_code": "07253",
    "zip_code": "07190",
    "name": "Saint-Julien-du-Gua",
    "slug": "saint julien du gua",
    "gps_lat": 44.77074672222221,
    "gps_lng": 4.45124461111111
  },
  {
    "id": 2322,
    "department_code": "07",
    "insee_code": "07254",
    "zip_code": "07200",
    "name": "Saint-Julien-du-Serre",
    "slug": "saint julien du serre",
    "gps_lat": 44.6617876923077,
    "gps_lng": 4.40248794871795
  },
  {
    "id": 2323,
    "department_code": "07",
    "insee_code": "07255",
    "zip_code": "07000",
    "name": "Saint-Julien-en-Saint-Alban",
    "slug": "saint julien en saint alban",
    "gps_lat": 44.75681292307693,
    "gps_lng": 4.69309820512821
  },
  {
    "id": 2324,
    "department_code": "07",
    "insee_code": "07256",
    "zip_code": "07160",
    "name": "Saint-Julien-Labrousse",
    "slug": "saint julien labrousse",
    "gps_lat": 44.90522347593583,
    "gps_lng": 4.51527385026738
  },
  {
    "id": 2325,
    "department_code": "07",
    "insee_code": "07257",
    "zip_code": "07240",
    "name": "Saint-Julien-le-Roux",
    "slug": "saint julien le roux",
    "gps_lat": 44.868053,
    "gps_lng": 4.6732395
  },
  {
    "id": 2326,
    "department_code": "07",
    "insee_code": "07258",
    "zip_code": "07690",
    "name": "Saint-Julien-Vocance",
    "slug": "saint julien vocance",
    "gps_lat": 45.16653876190475,
    "gps_lng": 4.4889219047619004
  },
  {
    "id": 2327,
    "department_code": "07",
    "insee_code": "07259",
    "zip_code": "07700",
    "name": "Saint-Just-d'Ard\u00e8che",
    "slug": "saint just d ardeche",
    "gps_lat": 44.29572549019607,
    "gps_lng": 4.61983441176471
  },
  {
    "id": 2328,
    "department_code": "07",
    "insee_code": "07260",
    "zip_code": "07210",
    "name": "Saint-Lager-Bressac",
    "slug": "saint lager bressac",
    "gps_lat": 44.69108446808511,
    "gps_lng": 4.72042645390071
  },
  {
    "id": 2329,
    "department_code": "07",
    "insee_code": "07261",
    "zip_code": "07800",
    "name": "Saint-Laurent-du-Pape",
    "slug": "saint laurent du pape",
    "gps_lat": 44.82431615384616,
    "gps_lng": 4.74246647435898
  },
  {
    "id": 2330,
    "department_code": "07",
    "insee_code": "07262",
    "zip_code": "07590",
    "name": "Saint-Laurent-les-Bains",
    "slug": "saint laurent les bains",
    "gps_lat": 44.59334023904383,
    "gps_lng": 3.9678990438247
  },
  {
    "id": 2331,
    "department_code": "07",
    "insee_code": "07263",
    "zip_code": "07170",
    "name": "Saint-Laurent-sous-Coiron",
    "slug": "saint laurent sous coiron",
    "gps_lat": 44.66640229411765,
    "gps_lng": 4.48871888235294
  },
  {
    "id": 2332,
    "department_code": "07",
    "insee_code": "07264",
    "zip_code": "07700",
    "name": "Saint-Marcel-d'Ard\u00e8che",
    "slug": "saint marcel d ardeche",
    "gps_lat": 44.32478683720932,
    "gps_lng": 4.5971605581395405
  },
  {
    "id": 2333,
    "department_code": "07",
    "insee_code": "07265",
    "zip_code": "07100",
    "name": "Saint-Marcel-l\u00e8s-Annonay",
    "slug": "saint marcel les annonay",
    "gps_lat": 45.29249599999999,
    "gps_lng": 4.63296266666667
  },
  {
    "id": 2334,
    "department_code": "07",
    "insee_code": "07266",
    "zip_code": "07140",
    "name": "Sainte-Marguerite-Lafig\u00e8re",
    "slug": "sainte marguerite lafigere",
    "gps_lat": 44.48940345945948,
    "gps_lng": 3.99672508108108
  },
  {
    "id": 2335,
    "department_code": "07",
    "insee_code": "07267",
    "zip_code": "07310",
    "name": "Saint-Martial",
    "slug": "saint martial",
    "gps_lat": 44.86060970954359,
    "gps_lng": 4.25552066390042
  },
  {
    "id": 2336,
    "department_code": "07",
    "insee_code": "07268",
    "zip_code": "07700",
    "name": "Saint-Martin-d'Ard\u00e8che",
    "slug": "saint martin d ardeche",
    "gps_lat": 44.30853285714286,
    "gps_lng": 4.57357714285714
  },
  {
    "id": 2337,
    "department_code": "07",
    "insee_code": "07269",
    "zip_code": "07310",
    "name": "Saint-Martin-de-Valamas",
    "slug": "saint martin de valamas",
    "gps_lat": 44.93549057471265,
    "gps_lng": 4.36537097701149
  },
  {
    "id": 2338,
    "department_code": "07",
    "insee_code": "07270",
    "zip_code": "07400",
    "name": "Saint-Martin-sur-Lavezon",
    "slug": "saint martin sur lavezon",
    "gps_lat": 44.64295193548387,
    "gps_lng": 4.65338021505376
  },
  {
    "id": 2339,
    "department_code": "07",
    "insee_code": "07272",
    "zip_code": "07200",
    "name": "Saint-Maurice-d'Ard\u00e8che",
    "slug": "saint maurice d ardeche",
    "gps_lat": 44.51518705128205,
    "gps_lng": 4.40814743589744
  },
  {
    "id": 2340,
    "department_code": "07",
    "insee_code": "07273",
    "zip_code": "07170",
    "name": "Saint-Maurice-d'Ibie",
    "slug": "saint maurice d ibie",
    "gps_lat": 44.48197900900902,
    "gps_lng": 4.48808779279279
  },
  {
    "id": 2341,
    "department_code": "07",
    "insee_code": "07274",
    "zip_code": "07190",
    "name": "Saint-Maurice-en-Chalencon",
    "slug": "saint maurice en chalencon",
    "gps_lat": 44.85534707865168,
    "gps_lng": 4.5819411235955
  },
  {
    "id": 2342,
    "department_code": "07",
    "insee_code": "07275",
    "zip_code": "07260",
    "name": "Saint-M\u00e9lany",
    "slug": "saint melany",
    "gps_lat": 44.53682974522292,
    "gps_lng": 4.12660222929936
  },
  {
    "id": 2343,
    "department_code": "07",
    "insee_code": "07276",
    "zip_code": "07160",
    "name": "Saint-Michel-d'Aurance",
    "slug": "saint michel d aurance",
    "gps_lat": 44.89672896551723,
    "gps_lng": 4.45836405172414
  },
  {
    "id": 2344,
    "department_code": "07",
    "insee_code": "07277",
    "zip_code": "07200",
    "name": "Saint-Michel-de-Boulogne",
    "slug": "saint michel de boulogne",
    "gps_lat": 44.699284295302,
    "gps_lng": 4.43361120805369
  },
  {
    "id": 2345,
    "department_code": "07",
    "insee_code": "07278",
    "zip_code": "07360",
    "name": "Saint-Michel-de-Chabrillanoux",
    "slug": "saint michel de chabrillanoux",
    "gps_lat": 44.83858307692308,
    "gps_lng": 4.61428438461538
  },
  {
    "id": 2346,
    "department_code": "07",
    "insee_code": "07279",
    "zip_code": "07220",
    "name": "Saint-Montan",
    "slug": "saint montan",
    "gps_lat": 44.42990826347305,
    "gps_lng": 4.61283580838323
  },
  {
    "id": 2347,
    "department_code": "07",
    "insee_code": "07280",
    "zip_code": "07460",
    "name": "Saint-Paul-le-Jeune",
    "slug": "saint paul le jeune",
    "gps_lat": 44.33336209459462,
    "gps_lng": 4.15796763513513
  },
  {
    "id": 2348,
    "department_code": "07",
    "insee_code": "07281",
    "zip_code": "07130",
    "name": "Saint-P\u00e9ray",
    "slug": "saint peray",
    "gps_lat": 44.93951403669722,
    "gps_lng": 4.82531068807339
  },
  {
    "id": 2349,
    "department_code": "07",
    "insee_code": "07282",
    "zip_code": "07450",
    "name": "Saint-Pierre-de-Colombier",
    "slug": "saint pierre de colombier",
    "gps_lat": 44.70906302816903,
    "gps_lng": 4.26458985915493
  },
  {
    "id": 2350,
    "department_code": "07",
    "insee_code": "07283",
    "zip_code": "07400",
    "name": "Saint-Pierre-la-Roche",
    "slug": "saint pierre la roche",
    "gps_lat": 44.65225723809523,
    "gps_lng": 4.62119895238095
  },
  {
    "id": 2351,
    "department_code": "07",
    "insee_code": "07284",
    "zip_code": "07140",
    "name": "Saint-Pierre-Saint-Jean",
    "slug": "saint pierre saint jean",
    "gps_lat": 44.47846619834712,
    "gps_lng": 4.10471285123967
  },
  {
    "id": 2352,
    "department_code": "07",
    "insee_code": "07285",
    "zip_code": "07520",
    "name": "Saint-Pierre-sur-Doux",
    "slug": "saint pierre sur doux",
    "gps_lat": 45.12248638888888,
    "gps_lng": 4.48291366666667
  },
  {
    "id": 2353,
    "department_code": "07",
    "insee_code": "07286",
    "zip_code": "07190",
    "name": "Saint-Pierreville",
    "slug": "saint pierreville",
    "gps_lat": 44.82238136125658,
    "gps_lng": 4.48812722513089
  },
  {
    "id": 2354,
    "department_code": "07",
    "insee_code": "07287",
    "zip_code": "07580",
    "name": "Saint-Pons",
    "slug": "saint pons",
    "gps_lat": 44.60222256038649,
    "gps_lng": 4.57183661835749
  },
  {
    "id": 2355,
    "department_code": "07",
    "insee_code": "07288",
    "zip_code": "07000",
    "name": "Saint-Priest",
    "slug": "saint priest",
    "gps_lat": 44.71595775147929,
    "gps_lng": 4.54219159763314
  },
  {
    "id": 2356,
    "department_code": "07",
    "insee_code": "07289",
    "zip_code": "07200",
    "name": "Saint-Privat",
    "slug": "saint privat",
    "gps_lat": 44.62985712871286,
    "gps_lng": 4.42390277227723
  },
  {
    "id": 2357,
    "department_code": "07",
    "insee_code": "07290",
    "zip_code": "07270",
    "name": "Saint-Prix",
    "slug": "saint prix",
    "gps_lat": 44.94598690058478,
    "gps_lng": 4.50286801169591
  },
  {
    "id": 2358,
    "department_code": "07",
    "insee_code": "07291",
    "zip_code": "07700",
    "name": "Saint-Rem\u00e8ze",
    "slug": "saint remeze",
    "gps_lat": 44.37709452914797,
    "gps_lng": 4.49150798206278
  },
  {
    "id": 2359,
    "department_code": "07",
    "insee_code": "07292",
    "zip_code": "07290",
    "name": "Saint-Romain-d'Ay",
    "slug": "saint romain d ay",
    "gps_lat": 45.16256173913046,
    "gps_lng": 4.67693965217391
  },
  {
    "id": 2360,
    "department_code": "07",
    "insee_code": "07293",
    "zip_code": "07130",
    "name": "Saint-Romain-de-Lerps",
    "slug": "saint romain de lerps",
    "gps_lat": 44.97732506172842,
    "gps_lng": 4.79776679012346
  },
  {
    "id": 2361,
    "department_code": "07",
    "insee_code": "07294",
    "zip_code": "07460",
    "name": "Saint-Sauveur-de-Cruzi\u00e8res",
    "slug": "saint sauveur de cruzieres",
    "gps_lat": 44.29655326923075,
    "gps_lng": 4.25781519230769
  },
  {
    "id": 2362,
    "department_code": "07",
    "insee_code": "07295",
    "zip_code": "07190",
    "name": "Saint-Sauveur-de-Montagut",
    "slug": "saint sauveur de montagut",
    "gps_lat": 44.8218041011236,
    "gps_lng": 4.57288803370786
  },
  {
    "id": 2363,
    "department_code": "07",
    "insee_code": "07296",
    "zip_code": "07200",
    "name": "Saint-Sernin",
    "slug": "saint sernin",
    "gps_lat": 44.5781344262295,
    "gps_lng": 4.37800901639344
  },
  {
    "id": 2364,
    "department_code": "07",
    "insee_code": "07297",
    "zip_code": "07440",
    "name": "Saint-Sylvestre",
    "slug": "saint sylvestre",
    "gps_lat": 44.98620876543208,
    "gps_lng": 4.7511175308641995
  },
  {
    "id": 2365,
    "department_code": "07",
    "insee_code": "07298",
    "zip_code": "07210",
    "name": "Saint-Symphorien-sous-Chom\u00e9rac",
    "slug": "saint symphorien sous chomerac",
    "gps_lat": 44.72708504950494,
    "gps_lng": 4.70787564356436
  },
  {
    "id": 2366,
    "department_code": "07",
    "insee_code": "07299",
    "zip_code": "07290",
    "name": "Saint-Symphorien-de-Mahun",
    "slug": "saint symphorien de mahun",
    "gps_lat": 45.156470990991,
    "gps_lng": 4.55647441441441
  },
  {
    "id": 2367,
    "department_code": "07",
    "insee_code": "07300",
    "zip_code": "07220",
    "name": "Saint-Thom\u00e9",
    "slug": "saint thome",
    "gps_lat": 44.50541986754968,
    "gps_lng": 4.61876264900663
  },
  {
    "id": 2368,
    "department_code": "07",
    "insee_code": "07301",
    "zip_code": "07410",
    "name": "Saint-Victor",
    "slug": "saint victor",
    "gps_lat": 45.09130690476191,
    "gps_lng": 4.6954025
  },
  {
    "id": 2369,
    "department_code": "07",
    "insee_code": "07302",
    "zip_code": "07210",
    "name": "Saint-Vincent-de-Barr\u00e8s",
    "slug": "saint vincent de barres",
    "gps_lat": 44.66129621848739,
    "gps_lng": 4.70647638655462
  },
  {
    "id": 2370,
    "department_code": "07",
    "insee_code": "07303",
    "zip_code": "07360",
    "name": "Saint-Vincent-de-Durfort",
    "slug": "saint vincent de durfort",
    "gps_lat": 44.79049844827583,
    "gps_lng": 4.63768034482759
  },
  {
    "id": 2371,
    "department_code": "07",
    "insee_code": "07304",
    "zip_code": "07150",
    "name": "Salavas",
    "slug": "salavas",
    "gps_lat": 44.3875311827957,
    "gps_lng": 4.36184107526882
  },
  {
    "id": 2372,
    "department_code": "07",
    "insee_code": "07305",
    "zip_code": "07140",
    "name": "Les Salelles",
    "slug": "les salelles",
    "gps_lat": 44.43886145833332,
    "gps_lng": 4.09978645833333
  },
  {
    "id": 2373,
    "department_code": "07",
    "insee_code": "07306",
    "zip_code": "07120",
    "name": "Sampzon",
    "slug": "sampzon",
    "gps_lat": 44.41076024390244,
    "gps_lng": 4.3322956097561
  },
  {
    "id": 2374,
    "department_code": "07",
    "insee_code": "07307",
    "zip_code": "07110",
    "name": "Sanilhac",
    "slug": "sanilhac",
    "gps_lat": 44.53211191588786,
    "gps_lng": 4.23223775700935
  },
  {
    "id": 2375,
    "department_code": "07",
    "insee_code": "07308",
    "zip_code": "07370",
    "name": "Sarras",
    "slug": "sarras",
    "gps_lat": 45.18664202797202,
    "gps_lng": 4.77877832167832
  },
  {
    "id": 2376,
    "department_code": "07",
    "insee_code": "07309",
    "zip_code": "07290",
    "name": "Satillieu",
    "slug": "satillieu",
    "gps_lat": 45.14610114285713,
    "gps_lng": 4.58764880952381
  },
  {
    "id": 2377,
    "department_code": "07",
    "insee_code": "07310",
    "zip_code": "07430",
    "name": "Savas",
    "slug": "savas",
    "gps_lat": 45.30132160583942,
    "gps_lng": 4.66404138686132
  },
  {
    "id": 2378,
    "department_code": "07",
    "insee_code": "07311",
    "zip_code": "07400",
    "name": "Sceautres",
    "slug": "sceautres",
    "gps_lat": 44.6166697368421,
    "gps_lng": 4.59879125
  },
  {
    "id": 2379,
    "department_code": "07",
    "insee_code": "07312",
    "zip_code": "07610",
    "name": "S\u00e9cheras",
    "slug": "secheras",
    "gps_lat": 45.12980421052632,
    "gps_lng": 4.77495280701754
  },
  {
    "id": 2380,
    "department_code": "07",
    "insee_code": "07313",
    "zip_code": "07340",
    "name": "Serri\u00e8res",
    "slug": "serrieres",
    "gps_lat": 45.31586564102566,
    "gps_lng": 4.75846051282051
  },
  {
    "id": 2381,
    "department_code": "07",
    "insee_code": "07314",
    "zip_code": "07240",
    "name": "Silhac",
    "slug": "silhac",
    "gps_lat": 44.87364009259259,
    "gps_lng": 4.61650291666666
  },
  {
    "id": 2382,
    "department_code": "07",
    "insee_code": "07315",
    "zip_code": "07380",
    "name": "La Souche",
    "slug": "la souche",
    "gps_lat": 44.62626883720931,
    "gps_lng": 4.17108273255814
  },
  {
    "id": 2383,
    "department_code": "07",
    "insee_code": "07316",
    "zip_code": "07130",
    "name": "Soyons",
    "slug": "soyons",
    "gps_lat": 44.89536723076922,
    "gps_lng": 4.84951661538461
  },
  {
    "id": 2384,
    "department_code": "07",
    "insee_code": "07317",
    "zip_code": "07340",
    "name": "Talencieux",
    "slug": "talencieux",
    "gps_lat": 45.21581218750001,
    "gps_lng": 4.77633984375
  },
  {
    "id": 2385,
    "department_code": "07",
    "insee_code": "07318",
    "zip_code": "07110",
    "name": "Tauriers",
    "slug": "tauriers",
    "gps_lat": 44.55194934065935,
    "gps_lng": 4.27105043956044
  },
  {
    "id": 2386,
    "department_code": "07",
    "insee_code": "07319",
    "zip_code": "07400",
    "name": "Le Teil",
    "slug": "le teil",
    "gps_lat": 44.54713333333333,
    "gps_lng": 4.66068601190476
  },
  {
    "id": 2387,
    "department_code": "07",
    "insee_code": "07321",
    "zip_code": "07340",
    "name": "Thorrenc",
    "slug": "thorrenc",
    "gps_lat": 45.23372812500001,
    "gps_lng": 4.76062875
  },
  {
    "id": 2388,
    "department_code": "07",
    "insee_code": "07322",
    "zip_code": "07330",
    "name": "Thueyts",
    "slug": "thueyts",
    "gps_lat": 44.67515911564623,
    "gps_lng": 4.20791544217687
  },
  {
    "id": 2389,
    "department_code": "07",
    "insee_code": "07323",
    "zip_code": "07130",
    "name": "Toulaud",
    "slug": "toulaud",
    "gps_lat": 44.90383232954545,
    "gps_lng": 4.78748028409091
  },
  {
    "id": 2390,
    "department_code": "07",
    "insee_code": "07324",
    "zip_code": "07300",
    "name": "Tournon-sur-Rh\u00f4ne",
    "slug": "tournon sur rhone",
    "gps_lat": 45.0495985294118,
    "gps_lng": 4.80980860294118
  },
  {
    "id": 2391,
    "department_code": "07",
    "insee_code": "07325",
    "zip_code": "07200",
    "name": "Ucel",
    "slug": "ucel",
    "gps_lat": 44.64038506329114,
    "gps_lng": 4.39037417721519
  },
  {
    "id": 2392,
    "department_code": "07",
    "insee_code": "07326",
    "zip_code": "07510",
    "name": "Usclades-et-Rieutord",
    "slug": "usclades et rieutord",
    "gps_lat": 44.77407323741004,
    "gps_lng": 4.16692143884892
  },
  {
    "id": 2393,
    "department_code": "07",
    "insee_code": "07327",
    "zip_code": "07110",
    "name": "Uzer",
    "slug": "uzer",
    "gps_lat": 44.52002024691357,
    "gps_lng": 4.32664111111111
  },
  {
    "id": 2394,
    "department_code": "07",
    "insee_code": "07328",
    "zip_code": "07150",
    "name": "Vagnas",
    "slug": "vagnas",
    "gps_lat": 44.35771342857142,
    "gps_lng": 4.34396735714286
  },
  {
    "id": 2395,
    "department_code": "07",
    "insee_code": "07329",
    "zip_code": "07110",
    "name": "Valgorge",
    "slug": "valgorge",
    "gps_lat": 44.58768491935485,
    "gps_lng": 4.11671677419355
  },
  {
    "id": 2396,
    "department_code": "07",
    "insee_code": "07330",
    "zip_code": "07150",
    "name": "Vallon-Pont-d'Arc",
    "slug": "vallon pont d arc",
    "gps_lat": 44.40105686098658,
    "gps_lng": 4.40896869955157
  },
  {
    "id": 2397,
    "department_code": "07",
    "insee_code": "07331",
    "zip_code": "07600",
    "name": "Vals-les-Bains",
    "slug": "vals les bains",
    "gps_lat": 44.67097557251909,
    "gps_lng": 4.34485541984733
  },
  {
    "id": 2398,
    "department_code": "07",
    "insee_code": "07332",
    "zip_code": "07400",
    "name": "Valvign\u00e8res",
    "slug": "valvigneres",
    "gps_lat": 44.50644535885169,
    "gps_lng": 4.55793583732057
  },
  {
    "id": 2399,
    "department_code": "07",
    "insee_code": "07333",
    "zip_code": "07690",
    "name": "Vanosc",
    "slug": "vanosc",
    "gps_lat": 45.22649605555555,
    "gps_lng": 4.53745938888889
  },
  {
    "id": 2400,
    "department_code": "07",
    "insee_code": "07334",
    "zip_code": "07140",
    "name": "Les Vans",
    "slug": "les vans",
    "gps_lat": 44.39292014925375,
    "gps_lng": 4.11765137313433
  },
  {
    "id": 2401,
    "department_code": "07",
    "insee_code": "07335",
    "zip_code": "07410",
    "name": "Vaudevant",
    "slug": "vaudevant",
    "gps_lat": 45.10653010989012,
    "gps_lng": 4.60701923076923
  },
  {
    "id": 2402,
    "department_code": "07",
    "insee_code": "07336",
    "zip_code": "07260",
    "name": "Vernon",
    "slug": "vernon",
    "gps_lat": 44.50661,
    "gps_lng": 4.22602473684211
  },
  {
    "id": 2403,
    "department_code": "07",
    "insee_code": "07337",
    "zip_code": "07430",
    "name": "Vernosc-l\u00e8s-Annonay",
    "slug": "vernosc les annonay",
    "gps_lat": 45.21957169642859,
    "gps_lng": 4.71694848214286
  },
  {
    "id": 2404,
    "department_code": "07",
    "insee_code": "07338",
    "zip_code": "07240",
    "name": "Vernoux-en-Vivarais",
    "slug": "vernoux en vivarais",
    "gps_lat": 44.90296562264152,
    "gps_lng": 4.64277098113207
  },
  {
    "id": 2405,
    "department_code": "07",
    "insee_code": "07339",
    "zip_code": "07200",
    "name": "Vesseaux",
    "slug": "vesseaux",
    "gps_lat": 44.65333045000003,
    "gps_lng": 4.4414466
  },
  {
    "id": 2406,
    "department_code": "07",
    "insee_code": "07340",
    "zip_code": "07000",
    "name": "Veyras",
    "slug": "veyras",
    "gps_lat": 44.73268630434782,
    "gps_lng": 4.55830934782609
  },
  {
    "id": 2407,
    "department_code": "07",
    "insee_code": "07341",
    "zip_code": "07170",
    "name": "Villeneuve-de-Berg",
    "slug": "villeneuve de berg",
    "gps_lat": 44.55030094262298,
    "gps_lng": 4.51030901639344
  },
  {
    "id": 2408,
    "department_code": "07",
    "insee_code": "07342",
    "zip_code": "07690",
    "name": "Villevocance",
    "slug": "villevocance",
    "gps_lat": 45.22578411111112,
    "gps_lng": 4.59569133333333
  },
  {
    "id": 2409,
    "department_code": "07",
    "insee_code": "07343",
    "zip_code": "07110",
    "name": "Vinezac",
    "slug": "vinezac",
    "gps_lat": 44.54766234848486,
    "gps_lng": 4.32951598484848
  },
  {
    "id": 2410,
    "department_code": "07",
    "insee_code": "07344",
    "zip_code": "07340",
    "name": "Vinzieux",
    "slug": "vinzieux",
    "gps_lat": 45.33034961904762,
    "gps_lng": 4.70294514285714
  },
  {
    "id": 2411,
    "department_code": "07",
    "insee_code": "07345",
    "zip_code": "07610",
    "name": "Vion",
    "slug": "vion",
    "gps_lat": 45.1123152631579,
    "gps_lng": 4.79386357894737
  },
  {
    "id": 2412,
    "department_code": "07",
    "insee_code": "07346",
    "zip_code": "07220",
    "name": "Viviers",
    "slug": "viviers",
    "gps_lat": 44.48603671874998,
    "gps_lng": 4.66175109375
  },
  {
    "id": 2413,
    "department_code": "07",
    "insee_code": "07347",
    "zip_code": "07690",
    "name": "Vocance",
    "slug": "vocance",
    "gps_lat": 45.19948072,
    "gps_lng": 4.56312776
  },
  {
    "id": 2414,
    "department_code": "07",
    "insee_code": "07348",
    "zip_code": "07200",
    "name": "Vog\u00fc\u00e9",
    "slug": "vogue",
    "gps_lat": 44.55305294117647,
    "gps_lng": 4.41391142857143
  },
  {
    "id": 2415,
    "department_code": "07",
    "insee_code": "07349",
    "zip_code": "07800",
    "name": "La Voulte-sur-Rh\u00f4ne",
    "slug": "la voulte sur rhone",
    "gps_lat": 44.80111075000001,
    "gps_lng": 4.77820975
  }
]
